STARLINK-5661           
1 55343U 23013N   26067.99242087 -.00000437  00000+0 -17247-4 0  9991
2 55343  43.0055 304.1967 0001746 251.6664 108.3988 15.02535792171608
QPS-SAR-8 (AMATERU-IV)  
1 60542U 24149CC  26068.70418071  .00008268  00000+0  61811-3 0  9990
2 60542  97.6699 148.7511 0003873  93.1500 267.0168 15.03026697 85328
